{
    "links": {
        "self": "http://www.neowsapp.com/rest/v1/neo/3827160?api_key=iIulBulltgU6a56xZRHN4H3l9WmuAYTsLGpBGhQ2"
    },
    "id": "3827160",
    "neo_reference_id": "3827160",
    "name": "(2018 RM)",
    "designation": "2018 RM",
    "nasa_jpl_url": "http://ssd.jpl.nasa.gov/sbdb.cgi?sstr=3827160",
    "absolute_magnitude_h": 21.0,
    "estimated_diameter": {
        "kilometers": {
            "estimated_diameter_min": 0.1677084622,
            "estimated_diameter_max": 0.3750075218
        },
        "meters": {
            "estimated_diameter_min": 167.7084621628,
            "estimated_diameter_max": 375.0075217981
        },
        "miles": {
            "estimated_diameter_min": 0.1042091748,
            "estimated_diameter_max": 0.2330187988
        },
        "feet": {
            "estimated_diameter_min": 550.2246310023,
            "estimated_diameter_max": 1230.3396778159
        }
    },
    "is_potentially_hazardous_asteroid": false,
    "close_approach_data": [
        {
            "close_approach_date": "2018-09-17",
            "close_approach_date_full": "2018-Sep-17 02:45",
            "epoch_date_close_approach": 1537152300000,
            "relative_velocity": {
                "kilometers_per_second": "29.3227083254",
                "kilometers_per_hour": "105561.7499714584",
                "miles_per_hour": "65591.9662530987"
            },
            "miss_distance": {
                "astronomical": "0.0933334964",
                "lunar": "36.3067300996",
                "kilometers": "13962492.261092668",
                "miles": "8675890.3846600984"
            },
            "orbiting_body": "Earth"
        }
    ],
    "orbital_data": {
        "orbit_id": "9",
        "orbit_determination_date": "2018-09-20 07:22:09",
        "first_observation_date": "2018-09-04",
        "last_observation_date": "2018-09-14",
        "data_arc_in_days": 10,
        "observations_used": 131,
        "orbit_uncertainty": "8",
        "minimum_orbit_intersection": ".0751113",
        "jupiter_tisserand_invariant": "2.599",
        "epoch_osculation": "2458369.5",
        "eccentricity": ".7676260122869502",
        "semi_major_axis": "2.816912282886366",
        "inclination": "37.14421961855204",
        "ascending_node_longitude": "352.1222699445647",
        "orbital_period": "1726.865098556853",
        "perihelion_distance": ".6545771402121756",
        "perihelion_argument": "87.90870097711046",
        "aphelion_distance": "4.979247425560557",
        "perihelion_time": "2458425.296720587699",
        "mean_anomaly": "348.3680436715304",
        "mean_motion": ".2084702506877076",
        "equinox": "J2000",
        "orbit_class": {
            "orbit_class_type": "APO",
            "orbit_class_description": "Near-Earth asteroid orbits which cross the Earth’s orbit similar to that of 1862 Apollo",
            "orbit_class_range": "a (semi-major axis) > 1.0 AU; q (perihelion) < 1.017 AU"
        }
    },
    "is_sentry_object": false
}